{"type": "FeatureCollection", "features": [{"type": "Feature", "geometry": {"type": "Point", "coordinates": [-92.4024555, 34.7810805]}, "properties": {"t": "Disturbance With Weapon In Progress", "c": "shots", "ts": "2026-10-04T06:17:17Z", "loc": "N Rodney Parham Rd / Fairway Dr", "gq": "intersection", "sens": 0}}, {"type": "Feature", "geometry": {"type": "Point", "coordinates": [-92.344425, 34.701489]}, "properties": {"t": "Battery In Progress", "c": "assault", "ts": "2026-10-04T06:09:11Z", "loc": "5301 S University Ave", "gq": "exact_address", "sens": 0}}, {"type": "Feature", "geometry": {"type": "Point", "coordinates": [-92.418673, 34.668961]}, "properties": {"t": "Burglar Alarm", "c": "alarm", "ts": "2026-10-04T06:07:33Z", "loc": "9125 Stagecoach Rd", "gq": "exact_address", "sens": 0}}, {"type": "Feature", "geometry": {"type": "Point", "coordinates": [-92.29279, 34.742747]}, "properties": {"t": "Battery", "c": "assault", "ts": "2026-10-04T06:05:56Z", "loc": "1 Childrens Way", "gq": "exact_address", "sens": 0}}, {"type": "Feature", "geometry": {"type": "Point", "coordinates": [-92.286119, 34.718893]}, "properties": {"t": "Unknown", "c": "suspicious", "ts": "2026-10-04T05:59:40Z", "loc": "3004 S Chester St", "gq": "exact_address", "sens": 0}}, {"type": "Feature", "geometry": {"type": "Point", "coordinates": [-92.32118249999999, 34.743777]}, "properties": {"t": "Disturbance In Progress", "c": "disturbance", "ts": "2026-10-04T05:59:18Z", "loc": "Maryland Ave / Abigail St", "gq": "intersection", "sens": 0}}, {"type": "Feature", "geometry": {"type": "Point", "coordinates": [-92.338224, 34.753049]}, "properties": {"t": "Disturbance In Progress", "c": "disturbance", "ts": "2026-10-04T05:52:41Z", "loc": "201 N Pierce St", "gq": "exact_address", "sens": 0}}, {"type": "Feature", "geometry": {"type": "Point", "coordinates": [-92.405426, 34.657771]}, "properties": {"t": "Theft In Progress", "c": "theft", "ts": "2026-10-04T05:49:22Z", "loc": "11701 Interstate 30", "gq": "exact_address", "sens": 0}}, {"type": "Feature", "geometry": {"type": "Point", "coordinates": [-92.2669, 34.745123]}, "properties": {"t": "Criminal Trespass In Progress", "c": "trespass", "ts": "2026-10-04T05:39:45Z", "loc": "315 S Rock St", "gq": "exact_address", "sens": 0}}, {"type": "Feature", "geometry": {"type": "Point", "coordinates": [-92.2711125, 34.7360905]}, "properties": {"t": "Accident Hit & Run", "c": "traffic", "ts": "2026-10-04T05:39:09Z", "loc": "S Scott St / E 13Th St", "gq": "intersection", "sens": 0}}, {"type": "Feature", "geometry": {"type": "Point", "coordinates": [-92.289132, 34.734743]}, "properties": {"t": "Unknown", "c": "suspicious", "ts": "2026-10-04T05:29:24Z", "loc": "1621 Dr Martin Luther King Dr", "gq": "exact_address", "sens": 0}}, {"type": "Feature", "geometry": {"type": "Point", "coordinates": [-92.35677, 34.655207]}, "properties": {"t": "Shots Fired", "c": "shots", "ts": "2026-10-04T05:28:01Z", "loc": "Mabelvale Ctf / Valley Dr", "gq": "intersection", "sens": 0}}, {"type": "Feature", "geometry": {"type": "Point", "coordinates": [-92.378715, 34.762123]}, "properties": {"t": "Suspicious Person", "c": "suspicious", "ts": "2026-10-04T05:27:04Z", "loc": "9300 Treasure Hill Rd", "gq": "exact_address", "sens": 0}}, {"type": "Feature", "geometry": {"type": "Point", "coordinates": [-92.31539499740259, 34.727072057142855]}, "properties": {"t": "Assist Medical", "c": "welfare", "ts": "2026-10-04T05:25:40Z", "loc": "2608 Maple St", "gq": "interpolated", "sens": 1}}, {"type": "Feature", "geometry": {"type": "Point", "coordinates": [-92.277329, 34.721237]}, "properties": {"t": "Disturbance With Weapon In Progress", "c": "shots", "ts": "2026-10-04T05:25:07Z", "loc": "2811 S Spring St", "gq": "exact_address", "sens": 0}}, {"type": "Feature", "geometry": {"type": "Point", "coordinates": [-92.279547, 34.740989]}, "properties": {"t": "Breaking Or Entering Auto", "c": "burglary", "ts": "2026-10-04T05:04:37Z", "loc": "721 W 9Th St", "gq": "exact_address", "sens": 0}}, {"type": "Feature", "geometry": {"type": "Point", "coordinates": [-92.332916, 34.6911315]}, "properties": {"t": "Fireworks", "c": "disturbance", "ts": "2026-10-04T05:00:03Z", "loc": "W 65Th St / Butler Rd", "gq": "intersection", "sens": 0}}, {"type": "Feature", "geometry": {"type": "Point", "coordinates": [-92.375226, 34.752332]}, "properties": {"t": "Burglar Alarm", "c": "alarm", "ts": "2026-10-04T04:56:14Z", "loc": "9101 W Markham St", "gq": "exact_address", "sens": 0}}, {"type": "Feature", "geometry": {"type": "Point", "coordinates": [-92.403417, 34.717028]}, "properties": {"t": "Accident Hit & Run", "c": "traffic", "ts": "2026-10-04T04:48:30Z", "loc": "5 Topgolf Way", "gq": "exact_address", "sens": 0}}, {"type": "Feature", "geometry": {"type": "Point", "coordinates": [-92.28099900000001, 34.74808]}, "properties": {"t": "Police - Subject Down", "c": "welfare", "ts": "2026-10-04T04:47:38Z", "loc": "W 3Rd St / S Chester St", "gq": "intersection", "sens": 1}}, {"type": "Feature", "geometry": {"type": "Point", "coordinates": [-92.3110085, 34.7280005]}, "properties": {"t": "Shots Fired", "c": "shots", "ts": "2026-10-04T04:45:17Z", "loc": "W 26Th St / Brown St", "gq": "intersection", "sens": 0}}, {"type": "Feature", "geometry": {"type": "Point", "coordinates": [-92.352466, 34.770595]}, "properties": {"t": "Assist Medical", "c": "welfare", "ts": "2026-10-04T04:42:35Z", "loc": "6838 Cantrell Rd", "gq": "exact_address", "sens": 1}}, {"type": "Feature", "geometry": {"type": "Point", "coordinates": [-92.333913, 34.734521]}, "properties": {"t": "Police - Subject Down", "c": "welfare", "ts": "2026-10-04T04:40:25Z", "loc": "1900 S Tyler St", "gq": "exact_address", "sens": 1}}, {"type": "Feature", "geometry": {"type": "Point", "coordinates": [-92.3675145, 34.7160695]}, "properties": {"t": "Loud Party", "c": "disturbance", "ts": "2026-10-04T04:36:51Z", "loc": "Zion St / W 41St St", "gq": "intersection", "sens": 0}}, {"type": "Feature", "geometry": {"type": "Point", "coordinates": [-92.332958, 34.721512]}, "properties": {"t": "Criminal Mischief In Progress", "c": "vandalism", "ts": "2026-10-04T04:33:26Z", "loc": "3401 Fair Park Blvd", "gq": "exact_address", "sens": 0}}, {"type": "Feature", "geometry": {"type": "Point", "coordinates": [-92.309644, 34.730607750000004]}, "properties": {"t": "Shot Spotter Activation", "c": "shots", "ts": "2026-10-04T04:31:05Z", "loc": "3201 W 23Rd St", "gq": "interpolated", "sens": 0}}, {"type": "Feature", "geometry": {"type": "Point", "coordinates": [-92.282394, 34.745282]}, "properties": {"t": "Check Condition Of Subject", "c": "welfare", "ts": "2026-10-04T04:23:41Z", "loc": "1001 W Capitol Ave", "gq": "exact_address", "sens": 1}}, {"type": "Feature", "geometry": {"type": "Point", "coordinates": [-92.341741, 34.751523]}, "properties": {"t": "Check Condition Of Subject", "c": "welfare", "ts": "2026-10-04T04:17:10Z", "loc": "104 S University Ave", "gq": "exact_address", "sens": 1}}, {"type": "Feature", "geometry": {"type": "Point", "coordinates": [-92.320146, 34.685964]}, "properties": {"t": "Battery Just Occurred", "c": "assault", "ts": "2026-10-04T04:09:33Z", "loc": "6900 Scott Hamilton Dr", "gq": "exact_address", "sens": 0}}, {"type": "Feature", "geometry": {"type": "Point", "coordinates": [-92.390576, 34.775215]}, "properties": {"t": "Check Condition Of Subject", "c": "welfare", "ts": "2026-10-04T04:05:18Z", "loc": "2221 Wentwood Valley Dr", "gq": "exact_address", "sens": 1}}, {"type": "Feature", "geometry": {"type": "Point", "coordinates": [-92.403284, 34.769392]}, "properties": {"t": "Disturbance With Weapon In Progress", "c": "shots", "ts": "2026-10-04T04:04:03Z", "loc": "11724 Rainwood Rd", "gq": "exact_address", "sens": 0}}, {"type": "Feature", "geometry": {"type": "Point", "coordinates": [-92.332492, 34.683353]}, "properties": {"t": "Shots Fired", "c": "shots", "ts": "2026-10-04T03:58:06Z", "loc": "5008 Halifax Dr", "gq": "exact_address", "sens": 0}}, {"type": "Feature", "geometry": {"type": "Point", "coordinates": [-92.332319, 34.690928]}, "properties": {"t": "Suspicious Person", "c": "suspicious", "ts": "2026-10-04T03:54:36Z", "loc": "6402 Butler Rd", "gq": "exact_address", "sens": 0}}, {"type": "Feature", "geometry": {"type": "Point", "coordinates": [-92.335925, 34.670235]}, "properties": {"t": "Loud Music", "c": "disturbance", "ts": "2026-10-04T03:53:18Z", "loc": "8700 Dreher Ln", "gq": "exact_address", "sens": 0}}, {"type": "Feature", "geometry": {"type": "Point", "coordinates": [-92.451723, 34.773682]}, "properties": {"t": "Assist Medical", "c": "welfare", "ts": "2026-10-04T03:52:01Z", "loc": "15 Chenal Village Cir", "gq": "exact_address", "sens": 1}}, {"type": "Feature", "geometry": {"type": "Point", "coordinates": [-92.362274, 34.732973]}, "properties": {"t": "Assist Medical", "c": "welfare", "ts": "2026-10-04T03:50:56Z", "loc": "7901 Parkwood Dr", "gq": "exact_address", "sens": 1}}, {"type": "Feature", "geometry": {"type": "Point", "coordinates": [-92.351649, 34.674563]}, "properties": {"t": "Loud Music", "c": "disturbance", "ts": "2026-10-04T03:40:23Z", "loc": "6608 Lantana Rd", "gq": "exact_address", "sens": 0}}, {"type": "Feature", "geometry": {"type": "Point", "coordinates": [-92.296653, 34.719386]}, "properties": {"t": "Accident Injuries", "c": "traffic", "ts": "2026-10-04T03:38:35Z", "loc": "2015 W 31St St", "gq": "exact_address", "sens": 0}}, {"type": "Feature", "geometry": {"type": "Point", "coordinates": [-92.373087, 34.725602]}, "properties": {"t": "Accident Hit & Run", "c": "traffic", "ts": "2026-10-04T03:37:43Z", "loc": "3012 John Barrow Rd", "gq": "exact_address", "sens": 0}}, {"type": "Feature", "geometry": {"type": "Point", "coordinates": [-92.377448, 34.69841]}, "properties": {"t": "Death", "c": "welfare", "ts": "2026-10-04T03:36:12Z", "loc": "5801 Tall Pine Blvd", "gq": "exact_address", "sens": 1}}, {"type": "Feature", "geometry": {"type": "Point", "coordinates": [-92.289233, 34.732704999999996]}, "properties": {"t": "Accident Hit & Run", "c": "traffic", "ts": "2026-10-04T03:34:44Z", "loc": "Wright Ave / Dr Martin Luther King Dr", "gq": "intersection", "sens": 0}}, {"type": "Feature", "geometry": {"type": "Point", "coordinates": [-92.333543, 34.686403]}, "properties": {"t": "Shots Fired", "c": "shots", "ts": "2026-10-04T03:33:14Z", "loc": "70 Westminister Dr", "gq": "exact_address", "sens": 0}}, {"type": "Feature", "geometry": {"type": "Point", "coordinates": [-92.341741, 34.751523]}, "properties": {"t": "Check Condition Of Subject", "c": "welfare", "ts": "2026-10-04T03:31:58Z", "loc": "104 S University Ave", "gq": "exact_address", "sens": 1}}, {"type": "Feature", "geometry": {"type": "Point", "coordinates": [-92.31017, 34.723478]}, "properties": {"t": "Administrative", "c": "assist", "ts": "2026-10-04T03:28:07Z", "loc": "3201 W Roosevelt Rd", "gq": "exact_address", "sens": 0}}, {"type": "Feature", "geometry": {"type": "Point", "coordinates": [-92.124639, 34.866193]}, "properties": {"t": "Criminal Trespass In Progress", "c": "trespass", "ts": "2026-10-04T03:26:35Z", "loc": "1301 Main St", "gq": "exact_address", "sens": 0}}, {"type": "Feature", "geometry": {"type": "Point", "coordinates": [-92.305424, 34.739555]}, "properties": {"t": "Accident Hit & Run W/Injury ( C )", "c": "traffic", "ts": "2026-10-04T03:20:51Z", "loc": "1201 S Woodrow St", "gq": "exact_address", "sens": 0}}, {"type": "Feature", "geometry": {"type": "Point", "coordinates": [-92.391244, 34.724546]}, "properties": {"t": "Assist Medical", "c": "welfare", "ts": "2026-10-04T03:19:57Z", "loc": "10434 W 36Th St", "gq": "exact_address", "sens": 1}}, {"type": "Feature", "geometry": {"type": "Point", "coordinates": [-92.42596930275229, 34.65842056880734]}, "properties": {"t": "Assist Other Agency Stolen Vehicle", "c": "theft", "ts": "2026-10-04T03:19:25Z", "loc": "10200 Stagecoach Rd", "gq": "interpolated", "sens": 0}}, {"type": "Feature", "geometry": {"type": "Point", "coordinates": [-92.255781, 34.735838]}, "properties": {"t": "Fight In Progress", "c": "assault", "ts": "2026-10-04T03:09:18Z", "loc": "1225 Geyer St", "gq": "exact_address", "sens": 0}}, {"type": "Feature", "geometry": {"type": "Point", "coordinates": [-92.403735, 34.772012]}, "properties": {"t": "Standby To Prevent Disturbance", "c": "disturbance", "ts": "2026-10-04T03:03:20Z", "loc": "1912 Green Mountain Dr", "gq": "exact_address", "sens": 0}}, {"type": "Feature", "geometry": {"type": "Point", "coordinates": [-92.379816, 34.721443]}, "properties": {"t": "Battery In Progress", "c": "assault", "ts": "2026-10-04T02:52:57Z", "loc": "9600 W 36Th St", "gq": "exact_address", "sens": 0}}, {"type": "Feature", "geometry": {"type": "Point", "coordinates": [-92.351836, 34.720203]}, "properties": {"t": "Disturbance In Progress", "c": "disturbance", "ts": "2026-10-04T02:51:37Z", "loc": "3510 S Bryant St", "gq": "exact_address", "sens": 0}}, {"type": "Feature", "geometry": {"type": "Point", "coordinates": [-92.4322, 34.65356]}, "properties": {"t": "Suspicious Person", "c": "suspicious", "ts": "2026-10-04T02:50:46Z", "loc": "35 Nandina Cir", "gq": "exact_address", "sens": 0}}, {"type": "Feature", "geometry": {"type": "Point", "coordinates": [-92.374224, 34.665629]}, "properties": {"t": "Disturbance In Progress", "c": "disturbance", "ts": "2026-10-04T02:46:46Z", "loc": "8601 Tedburn Dr", "gq": "exact_address", "sens": 0}}, {"type": "Feature", "geometry": {"type": "Point", "coordinates": [-92.324593, 34.728741]}, "properties": {"t": "Vehicle Stolen Vehicle", "c": "theft", "ts": "2026-10-04T02:42:49Z", "loc": "4509 W 25Th St", "gq": "exact_address", "sens": 0}}, {"type": "Feature", "geometry": {"type": "Point", "coordinates": [-92.428311, 34.68222]}, "properties": {"t": "Standby To Prevent Disturbance", "c": "disturbance", "ts": "2026-10-04T02:23:50Z", "loc": "1 Torey Pines Ct", "gq": "exact_address", "sens": 0}}, {"type": "Feature", "geometry": {"type": "Point", "coordinates": [-92.353253, 34.652457]}, "properties": {"t": "Unknown", "c": "suspicious", "ts": "2026-10-04T02:23:00Z", "loc": "6620 Gold Ct", "gq": "exact_address", "sens": 0}}, {"type": "Feature", "geometry": {"type": "Point", "coordinates": [-92.332592, 34.725859]}, "properties": {"t": "Found Property", "c": "other", "ts": "2026-10-04T02:19:52Z", "loc": "5220 W 29Th St", "gq": "exact_address", "sens": 0}}, {"type": "Feature", "geometry": {"type": "Point", "coordinates": [-92.343229, 34.725254]}, "properties": {"t": "Caravan", "c": "other", "ts": "2026-10-04T02:16:02Z", "loc": "3017 S University Ave", "gq": "interpolated", "sens": 0}}, {"type": "Feature", "geometry": {"type": "Point", "coordinates": [-92.324931, 34.758267]}, "properties": {"t": "Theft Just Occurred", "c": "theft", "ts": "2026-10-04T02:14:42Z", "loc": "2814 Kavanaugh Blvd", "gq": "exact_address", "sens": 0}}, {"type": "Feature", "geometry": {"type": "Point", "coordinates": [-92.354616, 34.668796]}, "properties": {"t": "Theft Just Occurred", "c": "theft", "ts": "2026-10-04T02:13:42Z", "loc": "6909 Baseline Rd", "gq": "exact_address", "sens": 0}}, {"type": "Feature", "geometry": {"type": "Point", "coordinates": [-92.3797945, 34.7098175]}, "properties": {"t": "Accident", "c": "traffic", "ts": "2026-10-04T02:11:45Z", "loc": "Foster St / Colonel Glenn Rd", "gq": "intersection", "sens": 0}}, {"type": "Feature", "geometry": {"type": "Point", "coordinates": [-92.37753, 34.670597]}, "properties": {"t": "Assist Medical", "c": "welfare", "ts": "2026-10-04T02:09:49Z", "loc": "10105 Interstate 30", "gq": "exact_address", "sens": 1}}, {"type": "Feature", "geometry": {"type": "Point", "coordinates": [-92.389878, 34.764164]}, "properties": {"t": "Battery Just Occurred", "c": "assault", "ts": "2026-10-04T02:07:07Z", "loc": "1010 Breckenridge Dr", "gq": "exact_address", "sens": 0}}, {"type": "Feature", "geometry": {"type": "Point", "coordinates": [-92.329749, 34.692502]}, "properties": {"t": "Fight In Progress", "c": "assault", "ts": "2026-10-04T02:01:14Z", "loc": "4800 Terra Vista Cir", "gq": "exact_address", "sens": 0}}, {"type": "Feature", "geometry": {"type": "Point", "coordinates": [-92.371486, 34.669754]}, "properties": {"t": "Narcotics Law Violations", "c": "drugs", "ts": "2026-10-04T01:56:45Z", "loc": "8419 Baseline Rd", "gq": "exact_address", "sens": 0}}, {"type": "Feature", "geometry": {"type": "Point", "coordinates": [-92.331131, 34.664971]}, "properties": {"t": "Burglary", "c": "burglary", "ts": "2026-10-04T01:54:37Z", "loc": "9500 S Heights Rd", "gq": "exact_address", "sens": 0}}, {"type": "Feature", "geometry": {"type": "Point", "coordinates": [-92.355167, 34.742472]}, "properties": {"t": "Assist Medical", "c": "welfare", "ts": "2026-10-04T01:47:48Z", "loc": "7200 W 12Th St", "gq": "exact_address", "sens": 1}}, {"type": "Feature", "geometry": {"type": "Point", "coordinates": [-92.387685, 34.738534]}, "properties": {"t": "Vehicle Alarm", "c": "alarm", "ts": "2026-10-04T01:42:47Z", "loc": "1615 Wilson Rd", "gq": "exact_address", "sens": 0}}, {"type": "Feature", "geometry": {"type": "Point", "coordinates": [-92.350567, 34.663241]}, "properties": {"t": "Residential Alarm", "c": "alarm", "ts": "2026-10-04T01:36:13Z", "loc": "9603 Susanne Dr", "gq": "exact_address", "sens": 0}}, {"type": "Feature", "geometry": {"type": "Point", "coordinates": [-92.393473, 34.754368]}, "properties": {"t": "Check Condition Of Subject", "c": "welfare", "ts": "2026-10-04T01:34:19Z", "loc": "10724 W Markham St", "gq": "exact_address", "sens": 1}}, {"type": "Feature", "geometry": {"type": "Point", "coordinates": [-92.316874, 34.674245]}, "properties": {"t": "Criminal Mischief In Progress", "c": "vandalism", "ts": "2026-10-04T01:33:31Z", "loc": "8223 Scott Hamilton Dr", "gq": "exact_address", "sens": 0}}, {"type": "Feature", "geometry": {"type": "Point", "coordinates": [-92.304135, 34.68819]}, "properties": {"t": "Check Condition Of Subject", "c": "welfare", "ts": "2026-10-04T01:29:48Z", "loc": "2401 W 65Th St", "gq": "exact_address", "sens": 1}}, {"type": "Feature", "geometry": {"type": "Point", "coordinates": [-92.344021, 34.681124]}, "properties": {"t": "Criminal Mischief", "c": "vandalism", "ts": "2026-10-04T01:27:41Z", "loc": "7520 Geyer Springs Rd", "gq": "exact_address", "sens": 0}}, {"type": "Feature", "geometry": {"type": "Point", "coordinates": [-92.37734, 34.731932]}, "properties": {"t": "Vehicle", "c": "traffic", "ts": "2026-10-04T01:16:42Z", "loc": "9207 Tanya Dr", "gq": "exact_address", "sens": 0}}, {"type": "Feature", "geometry": {"type": "Point", "coordinates": [-92.255781, 34.735838]}, "properties": {"t": "Battery In Progress", "c": "assault", "ts": "2026-10-04T01:13:45Z", "loc": "1225 Geyer St", "gq": "exact_address", "sens": 0}}, {"type": "Feature", "geometry": {"type": "Point", "coordinates": [-92.306854, 34.690147]}, "properties": {"t": "Disturbance In Progress", "c": "disturbance", "ts": "2026-10-04T01:12:02Z", "loc": "2600 W 65Th St", "gq": "exact_address", "sens": 0}}, {"type": "Feature", "geometry": {"type": "Point", "coordinates": [-92.32111, 34.673257]}, "properties": {"t": "Shots Fired", "c": "shots", "ts": "2026-10-04T01:11:09Z", "loc": "3824 Community Ln", "gq": "exact_address", "sens": 0}}, {"type": "Feature", "geometry": {"type": "Point", "coordinates": [-92.32417699999999, 34.7310255]}, "properties": {"t": "Assist Medical", "c": "welfare", "ts": "2026-10-04T01:08:28Z", "loc": "Washington St / W 23Rd St", "gq": "intersection", "sens": 1}}, {"type": "Feature", "geometry": {"type": "Point", "coordinates": [-92.31606, 34.751193]}, "properties": {"t": "Check Condition Of Subject", "c": "welfare", "ts": "2026-10-04T01:03:57Z", "loc": "3825 W Markham St", "gq": "exact_address", "sens": 1}}, {"type": "Feature", "geometry": {"type": "Point", "coordinates": [-92.403284, 34.769392]}, "properties": {"t": "Disturbance In Progress", "c": "disturbance", "ts": "2026-10-04T01:00:59Z", "loc": "11724 Rainwood Rd", "gq": "exact_address", "sens": 0}}, {"type": "Feature", "geometry": {"type": "Point", "coordinates": [-92.329275, 34.68575]}, "properties": {"t": "Criminal Mischief", "c": "vandalism", "ts": "2026-10-04T00:59:38Z", "loc": "38 Durham Dr", "gq": "exact_address", "sens": 0}}, {"type": "Feature", "geometry": {"type": "Point", "coordinates": [-92.412434, 34.780545]}, "properties": {"t": "Residential Alarm", "c": "alarm", "ts": "2026-10-04T00:52:49Z", "loc": "400 Valley Club Cir", "gq": "exact_address", "sens": 0}}, {"type": "Feature", "geometry": {"type": "Point", "coordinates": [-92.308227, 34.737148]}, "properties": {"t": "Check Condition Of Subject", "c": "welfare", "ts": "2026-10-04T12:28:29Z", "loc": "3101 W 15Th St", "gq": "exact_address", "sens": 1}}, {"type": "Feature", "geometry": {"type": "Point", "coordinates": [-92.339421, 34.698063]}, "properties": {"t": "Information Report", "c": "assist", "ts": "2026-10-04T12:23:42Z", "loc": "5700 W 57Th St", "gq": "exact_address", "sens": 0}}, {"type": "Feature", "geometry": {"type": "Point", "coordinates": [-92.36871, 34.67844]}, "properties": {"t": "Criminal Mischief", "c": "vandalism", "ts": "2026-10-04T12:19:19Z", "loc": "8003 Edwina Dr", "gq": "exact_address", "sens": 0}}, {"type": "Feature", "geometry": {"type": "Point", "coordinates": [-92.352111, 34.770211]}, "properties": {"t": "Disturbance", "c": "disturbance", "ts": "2026-10-04T12:16:11Z", "loc": "6900 Cantrell Rd", "gq": "exact_address", "sens": 0}}, {"type": "Feature", "geometry": {"type": "Point", "coordinates": [-92.358036, 34.670641]}, "properties": {"t": "Burglary Just Occurred", "c": "burglary", "ts": "2026-10-04T12:10:26Z", "loc": "6 Somerton Cir", "gq": "exact_address", "sens": 0}}, {"type": "Feature", "geometry": {"type": "Point", "coordinates": [-92.392979, 34.67094]}, "properties": {"t": "Criminal Trespass In Progress", "c": "trespass", "ts": "2026-10-04T12:00:55Z", "loc": "10312 Baseline Rd", "gq": "exact_address", "sens": 0}}, {"type": "Feature", "geometry": {"type": "Point", "coordinates": [-92.455249, 34.773571]}, "properties": {"t": "Suspicious Person", "c": "suspicious", "ts": "2026-10-04T11:59:38Z", "loc": "16401 Chenal Valley Dr", "gq": "exact_address", "sens": 0}}, {"type": "Feature", "geometry": {"type": "Point", "coordinates": [-92.338962, 34.764452]}, "properties": {"t": "Burglary In Progress", "c": "burglary", "ts": "2026-10-04T11:58:24Z", "loc": "1421 N University Ave", "gq": "exact_address", "sens": 0}}, {"type": "Feature", "geometry": {"type": "Point", "coordinates": [-92.38017, 34.697813]}, "properties": {"t": "Unknown", "c": "suspicious", "ts": "2026-10-04T11:52:44Z", "loc": "5806 Pecan Lake Rd", "gq": "exact_address", "sens": 0}}, {"type": "Feature", "geometry": {"type": "Point", "coordinates": [-92.282394, 34.745282]}, "properties": {"t": "Check Condition Of Subject", "c": "welfare", "ts": "2026-10-04T11:37:33Z", "loc": "1001 W Capitol Ave", "gq": "exact_address", "sens": 1}}, {"type": "Feature", "geometry": {"type": "Point", "coordinates": [-92.333905, 34.743314]}, "properties": {"t": "Check Condition Of Subject", "c": "welfare", "ts": "2026-10-04T11:26:13Z", "loc": "925 Fair Park Blvd", "gq": "exact_address", "sens": 1}}, {"type": "Feature", "geometry": {"type": "Point", "coordinates": [-92.402893, 34.765066]}, "properties": {"t": "Vehicle Suspicious Vehicle", "c": "traffic", "ts": "2026-10-04T11:24:43Z", "loc": "13 Queens Ct", "gq": "exact_address", "sens": 0}}, {"type": "Feature", "geometry": {"type": "Point", "coordinates": [-92.408676, 34.793768]}, "properties": {"t": "Assist Medical", "c": "welfare", "ts": "2026-10-04T11:21:08Z", "loc": "11810 Pleasant Ridge Rd", "gq": "exact_address", "sens": 1}}, {"type": "Feature", "geometry": {"type": "Point", "coordinates": [-92.362684, 34.655371]}, "properties": {"t": "Burglar Alarm", "c": "alarm", "ts": "2026-10-04T11:13:14Z", "loc": "10423 Chicot Rd", "gq": "exact_address", "sens": 0}}, {"type": "Feature", "geometry": {"type": "Point", "coordinates": [-92.278324, 34.749413]}, "properties": {"t": "Check Condition Of Subject", "c": "welfare", "ts": "2026-10-04T10:45:28Z", "loc": "720 W Markham St", "gq": "exact_address", "sens": 1}}, {"type": "Feature", "geometry": {"type": "Point", "coordinates": [-92.3219495, 34.76772]}, "properties": {"t": "Accident Injuries", "c": "traffic", "ts": "2026-10-04T10:29:51Z", "loc": "Cantrell Rd / Edgehill Rd", "gq": "intersection", "sens": 0}}, {"type": "Feature", "geometry": {"type": "Point", "coordinates": [-92.34336, 34.676926]}, "properties": {"t": "Criminal Trespass In Progress", "c": "trespass", "ts": "2026-10-04T10:19:47Z", "loc": "8011 Geyer Springs Rd", "gq": "exact_address", "sens": 0}}, {"type": "Feature", "geometry": {"type": "Point", "coordinates": [-92.431014, 34.674378]}, "properties": {"t": "Battery In Progress", "c": "assault", "ts": "2026-10-04T10:13:45Z", "loc": "5 Bogey Ln", "gq": "exact_address", "sens": 0}}, {"type": "Feature", "geometry": {"type": "Point", "coordinates": [-92.251475, 34.70746]}, "properties": {"t": "Check Condition Of Subject", "c": "welfare", "ts": "2026-10-04T10:00:50Z", "loc": "7 Chicago St", "gq": "exact_address", "sens": 1}}, {"type": "Feature", "geometry": {"type": "Point", "coordinates": [-92.458406, 34.803789]}, "properties": {"t": "Burglar Alarm", "c": "alarm", "ts": "2026-10-04T09:55:35Z", "loc": "16900 Cantrell Rd", "gq": "exact_address", "sens": 0}}, {"type": "Feature", "geometry": {"type": "Point", "coordinates": [-92.333024, 34.684253]}, "properties": {"t": "Accident Hit & Run", "c": "traffic", "ts": "2026-10-04T09:54:42Z", "loc": "59 S Wakefield Dr", "gq": "exact_address", "sens": 0}}, {"type": "Feature", "geometry": {"type": "Point", "coordinates": [-92.358246, 34.753847]}, "properties": {"t": "Check Condition Of Subject", "c": "welfare", "ts": "2026-10-04T09:40:40Z", "loc": "7515 Amherst Dr", "gq": "exact_address", "sens": 1}}, {"type": "Feature", "geometry": {"type": "Point", "coordinates": [-92.375893, 34.7351]}, "properties": {"t": "Battery In Progress", "c": "assault", "ts": "2026-10-04T09:23:06Z", "loc": "2123 Labette Manor Dr", "gq": "exact_address", "sens": 0}}, {"type": "Feature", "geometry": {"type": "Point", "coordinates": [-92.307407, 34.733769]}, "properties": {"t": "Disturbance In Progress", "c": "disturbance", "ts": "2026-10-04T09:21:16Z", "loc": "1822 Booker St", "gq": "exact_address", "sens": 0}}, {"type": "Feature", "geometry": {"type": "Point", "coordinates": [-92.452145, 34.775895]}, "properties": {"t": "Assist Medical", "c": "welfare", "ts": "2026-10-04T08:37:49Z", "loc": "1 Chenal Heights Dr", "gq": "exact_address", "sens": 1}}, {"type": "Feature", "geometry": {"type": "Point", "coordinates": [-92.246878, 34.755174]}, "properties": {"t": "Assist Medical", "c": "welfare", "ts": "2026-10-04T08:28:51Z", "loc": "1800 Broadway St", "gq": "exact_address", "sens": 1}}, {"type": "Feature", "geometry": {"type": "Point", "coordinates": [-92.330894, 34.721222]}, "properties": {"t": "Battery In Progress", "c": "assault", "ts": "2026-10-04T08:25:37Z", "loc": "5100 Asher Ave", "gq": "exact_address", "sens": 0}}, {"type": "Feature", "geometry": {"type": "Point", "coordinates": [-92.382995, 34.695139]}, "properties": {"t": "Battery Just Occurred", "c": "assault", "ts": "2026-10-04T08:23:22Z", "loc": "6104 Mcpherson Rd", "gq": "exact_address", "sens": 0}}, {"type": "Feature", "geometry": {"type": "Point", "coordinates": [-92.3675145, 34.7160695]}, "properties": {"t": "Disturbance With Weapon In Progress", "c": "shots", "ts": "2026-10-04T08:20:21Z", "loc": "W 41St St / Zion St", "gq": "intersection", "sens": 0}}, {"type": "Feature", "geometry": {"type": "Point", "coordinates": [-92.313019, 34.694029]}, "properties": {"t": "Caravan", "c": "other", "ts": "2026-10-04T08:12:42Z", "loc": "5901 Murray St", "gq": "exact_address", "sens": 0}}, {"type": "Feature", "geometry": {"type": "Point", "coordinates": [-92.422606, 34.7738]}, "properties": {"t": "Death", "c": "welfare", "ts": "2026-10-04T08:11:00Z", "loc": "2112 Hinson Rd", "gq": "exact_address", "sens": 1}}, {"type": "Feature", "geometry": {"type": "Point", "coordinates": [-92.37283, 34.710955]}, "properties": {"t": "Battery In Progress", "c": "assault", "ts": "2026-10-04T08:08:31Z", "loc": "8724 Colonel Glenn Rd", "gq": "exact_address", "sens": 0}}, {"type": "Feature", "geometry": {"type": "Point", "coordinates": [-92.307407, 34.733769]}, "properties": {"t": "Loud Party", "c": "disturbance", "ts": "2026-10-04T08:05:36Z", "loc": "1822 Booker St", "gq": "exact_address", "sens": 0}}, {"type": "Feature", "geometry": {"type": "Point", "coordinates": [-92.31895, 34.751866]}, "properties": {"t": "Battery In Progress", "c": "assault", "ts": "2026-10-04T07:47:01Z", "loc": "4100 W Markham St", "gq": "exact_address", "sens": 0}}, {"type": "Feature", "geometry": {"type": "Point", "coordinates": [-92.381391, 34.77986525974026]}, "properties": {"t": "Vehicle Suspicious Vehicle", "c": "traffic", "ts": "2026-10-04T07:38:51Z", "loc": "2925 Charter Oak Dr", "gq": "interpolated", "sens": 0}}, {"type": "Feature", "geometry": {"type": "Point", "coordinates": [-92.300012, 34.758631]}, "properties": {"t": "Dwi", "c": "traffic", "ts": "2026-10-04T07:36:40Z", "loc": "1021 Jessie Rd", "gq": "exact_address", "sens": 0}}, {"type": "Feature", "geometry": {"type": "Point", "coordinates": [-92.302698, 34.758443]}, "properties": {"t": "Disturbance With Weapon In Progress", "c": "shots", "ts": "2026-10-04T07:35:36Z", "loc": "2402 Cantrell Rd", "gq": "exact_address", "sens": 0}}, {"type": "Feature", "geometry": {"type": "Point", "coordinates": [-92.360395, 34.694012]}, "properties": {"t": "Shots Fired", "c": "shots", "ts": "2026-10-04T07:32:12Z", "loc": "54 W Windsor Dr", "gq": "exact_address", "sens": 0}}, {"type": "Feature", "geometry": {"type": "Point", "coordinates": [-92.400373, 34.757497]}, "properties": {"t": "Burglary In Progress", "c": "burglary", "ts": "2026-10-04T07:28:20Z", "loc": "11405 Mara Lynn Rd", "gq": "exact_address", "sens": 0}}, {"type": "Feature", "geometry": {"type": "Point", "coordinates": [-92.343917, 34.6901065]}, "properties": {"t": "Vehicle Abandoned Vehicle", "c": "traffic", "ts": "2026-10-04T07:26:37Z", "loc": "Geyer Springs Rd / W 65Th St", "gq": "intersection", "sens": 0}}, {"type": "Feature", "geometry": {"type": "Point", "coordinates": [-92.404613, 34.767581]}, "properties": {"t": "Disturbance In Progress", "c": "disturbance", "ts": "2026-10-04T07:11:39Z", "loc": "1502 Green Mountain Dr", "gq": "exact_address", "sens": 0}}, {"type": "Feature", "geometry": {"type": "Point", "coordinates": [-92.404085, 34.791348]}, "properties": {"t": "Disturbance In Progress", "c": "disturbance", "ts": "2026-10-04T07:01:39Z", "loc": "3 Cedar Branch Dr", "gq": "exact_address", "sens": 0}}, {"type": "Feature", "geometry": {"type": "Point", "coordinates": [-92.302001, 34.731172]}, "properties": {"t": "Assist Medical", "c": "welfare", "ts": "2026-10-04T06:59:24Z", "loc": "2000 Thayer St", "gq": "exact_address", "sens": 1}}, {"type": "Feature", "geometry": {"type": "Point", "coordinates": [-92.412177, 34.676201]}, "properties": {"t": "Narcotics Law Violations", "c": "drugs", "ts": "2026-10-04T06:56:29Z", "loc": "8300 Stagecoach Rd", "gq": "exact_address", "sens": 0}}, {"type": "Feature", "geometry": {"type": "Point", "coordinates": [-92.269746, 34.741629]}, "properties": {"t": "Robbery Of Individual Just Occurred", "c": "robbery", "ts": "2026-10-04T06:55:33Z", "loc": "701 S Scott St", "gq": "exact_address", "sens": 0}}, {"type": "Feature", "geometry": {"type": "Point", "coordinates": [-92.296748, 34.720923]}, "properties": {"t": "Suspicious Person", "c": "suspicious", "ts": "2026-10-04T06:50:29Z", "loc": "2915 S Schiller St", "gq": "exact_address", "sens": 0}}, {"type": "Feature", "geometry": {"type": "Point", "coordinates": [-92.3069415, 34.73391166666667]}, "properties": {"t": "Unknown", "c": "suspicious", "ts": "2026-10-04T06:49:17Z", "loc": "1820 Booker St", "gq": "interpolated", "sens": 0}}, {"type": "Feature", "geometry": {"type": "Point", "coordinates": [-92.33078325, 34.692815499999995]}, "properties": {"t": "Disturbance In Progress", "c": "disturbance", "ts": "2026-10-04T06:47:15Z", "loc": "4813 Terra Vista Cir", "gq": "interpolated", "sens": 0}}, {"type": "Feature", "geometry": {"type": "Point", "coordinates": [-92.383215, 34.756153]}, "properties": {"t": "Battery In Progress", "c": "assault", "ts": "2026-10-04T06:43:25Z", "loc": "9806 Temple Dr", "gq": "exact_address", "sens": 0}}, {"type": "Feature", "geometry": {"type": "Point", "coordinates": [-92.330585, 34.72055]}, "properties": {"t": "Loitering", "c": "trespass", "ts": "2026-10-04T06:37:24Z", "loc": "5103 Asher Ave", "gq": "exact_address", "sens": 0}}, {"type": "Feature", "geometry": {"type": "Point", "coordinates": [-92.229679, 34.719831]}, "properties": {"t": "Burglar Alarm", "c": "alarm", "ts": "2026-10-04T06:28:54Z", "loc": "3721 E Roosevelt Rd", "gq": "exact_address", "sens": 0}}, {"type": "Feature", "geometry": {"type": "Point", "coordinates": [-92.3317965, 34.733081]}, "properties": {"t": "Disturbance In Progress", "c": "disturbance", "ts": "2026-10-04T06:25:23Z", "loc": "S Harrison St / W 21St St", "gq": "intersection", "sens": 0}}, {"type": "Feature", "geometry": {"type": "Point", "coordinates": [-92.326912, 34.688865]}, "properties": {"t": "Assist Medical", "c": "welfare", "ts": "2026-10-04T06:24:18Z", "loc": "6607 E Wakefield Dr", "gq": "exact_address", "sens": 1}}, {"type": "Feature", "geometry": {"type": "Point", "coordinates": [-92.383403, 34.763035]}, "properties": {"t": "Burglar Alarm", "c": "alarm", "ts": "2026-10-04T06:20:28Z", "loc": "9804 N Rodney Parham Rd", "gq": "exact_address", "sens": 0}}, {"type": "Feature", "geometry": {"type": "Point", "coordinates": [-92.346162, 34.698967]}, "properties": {"t": "Standby To Prevent Disturbance", "c": "disturbance", "ts": "2026-10-04T06:18:40Z", "loc": "5620 S University Ave", "gq": "exact_address", "sens": 0}}, {"type": "Feature", "geometry": {"type": "Point", "coordinates": [-92.443141, 34.642138]}, "properties": {"t": "Prisoner Transport", "c": "assist", "ts": "2026-10-04T17:33:22Z", "loc": "13400 Interstate 30", "gq": "exact_address", "sens": 0}}, {"type": "Feature", "geometry": {"type": "Point", "coordinates": [-92.260913, 34.724785]}, "properties": {"t": "Theft", "c": "theft", "ts": "2026-10-04T17:11:10Z", "loc": "1100 E Roosevelt Rd", "gq": "exact_address", "sens": 0}}, {"type": "Feature", "geometry": {"type": "Point", "coordinates": [-92.348033, 34.719468]}, "properties": {"t": "Disturbance In Progress", "c": "disturbance", "ts": "2026-10-04T17:02:41Z", "loc": "6420 Colonel Glenn Rd", "gq": "exact_address", "sens": 0}}, {"type": "Feature", "geometry": {"type": "Point", "coordinates": [-92.3948165, 34.7778505]}, "properties": {"t": "Vehicle Blocked Drive / Alley", "c": "traffic", "ts": "2026-10-04T16:57:31Z", "loc": "Pleasant Valley Dr / Platte Valley Dr", "gq": "intersection", "sens": 0}}, {"type": "Feature", "geometry": {"type": "Point", "coordinates": [-92.406801, 34.769892]}, "properties": {"t": "Disturbance", "c": "disturbance", "ts": "2026-10-04T16:56:41Z", "loc": "12100 Rainwood Rd", "gq": "exact_address", "sens": 0}}, {"type": "Feature", "geometry": {"type": "Point", "coordinates": [-92.255781, 34.735838]}, "properties": {"t": "Assist Medical", "c": "welfare", "ts": "2026-10-04T16:53:03Z", "loc": "1225 Geyer St", "gq": "exact_address", "sens": 1}}, {"type": "Feature", "geometry": {"type": "Point", "coordinates": [-92.474978, 34.789777]}, "properties": {"t": "Assist Medical", "c": "welfare", "ts": "2026-10-04T16:50:52Z", "loc": "23101 Chenal Valley Dr", "gq": "exact_address", "sens": 1}}, {"type": "Feature", "geometry": {"type": "Point", "coordinates": [-92.460763, 34.766665]}, "properties": {"t": "Check Condition Of Subject", "c": "welfare", "ts": "2026-10-04T16:48:46Z", "loc": "701 Rahling Rd", "gq": "exact_address", "sens": 1}}, {"type": "Feature", "geometry": {"type": "Point", "coordinates": [-92.346238, 34.718097]}, "properties": {"t": "Disturbance In Progress", "c": "disturbance", "ts": "2026-10-04T16:47:57Z", "loc": "6416 Colonel Glenn Rd", "gq": "exact_address", "sens": 0}}, {"type": "Feature", "geometry": {"type": "Point", "coordinates": [-92.482107, 34.804918]}, "properties": {"t": "Assist Medical", "c": "welfare", "ts": "2026-10-04T16:44:18Z", "loc": "27 Berney Way Dr", "gq": "exact_address", "sens": 1}}, {"type": "Feature", "geometry": {"type": "Point", "coordinates": [-92.376619, 34.751538]}, "properties": {"t": "Parking Violation", "c": "traffic", "ts": "2026-10-04T16:41:17Z", "loc": "304 Nebling Rd", "gq": "exact_address", "sens": 0}}, {"type": "Feature", "geometry": {"type": "Point", "coordinates": [-92.388851, 34.77094]}, "properties": {"t": "Loud Music", "c": "disturbance", "ts": "2026-10-04T16:40:37Z", "loc": "1420 Breckenridge Dr", "gq": "exact_address", "sens": 0}}, {"type": "Feature", "geometry": {"type": "Point", "coordinates": [-92.390401, 34.75515]}, "properties": {"t": "Theft", "c": "theft", "ts": "2026-10-04T16:39:31Z", "loc": "10524 W Markham St", "gq": "exact_address", "sens": 0}}, {"type": "Feature", "geometry": {"type": "Point", "coordinates": [-92.289662, 34.738208]}, "properties": {"t": "Criminal Mischief", "c": "vandalism", "ts": "2026-10-04T16:26:08Z", "loc": "1306 Dr Martin Luther King Dr", "gq": "exact_address", "sens": 0}}, {"type": "Feature", "geometry": {"type": "Point", "coordinates": [-92.386637, 34.670835]}, "properties": {"t": "Battery With Weapon", "c": "shots", "ts": "2026-10-04T16:20:48Z", "loc": "9700 Baseline Rd", "gq": "exact_address", "sens": 0}}, {"type": "Feature", "geometry": {"type": "Point", "coordinates": [-92.421789, 34.649333]}, "properties": {"t": "Accident", "c": "traffic", "ts": "2026-10-04T16:13:32Z", "loc": "12400 Interstate 30", "gq": "exact_address", "sens": 0}}, {"type": "Feature", "geometry": {"type": "Point", "coordinates": [-92.395496, 34.733633]}, "properties": {"t": "Accident", "c": "traffic", "ts": "2026-10-04T16:06:18Z", "loc": "2618 S Shackleford Rd", "gq": "exact_address", "sens": 0}}, {"type": "Feature", "geometry": {"type": "Point", "coordinates": [-92.351177, 34.658101]}, "properties": {"t": "Check Condition Of Subject", "c": "welfare", "ts": "2026-10-04T16:01:14Z", "loc": "6510 Mabelvale Ctf", "gq": "exact_address", "sens": 1}}, {"type": "Feature", "geometry": {"type": "Point", "coordinates": [-92.34073, 34.75249]}, "properties": {"t": "Disturbance In Progress", "c": "disturbance", "ts": "2026-10-04T15:55:15Z", "loc": "101 N University Ave", "gq": "exact_address", "sens": 0}}, {"type": "Feature", "geometry": {"type": "Point", "coordinates": [-92.27104750000001, 34.7424635]}, "properties": {"t": "Accident", "c": "traffic", "ts": "2026-10-04T15:53:07Z", "loc": "E 7Th St / Main St", "gq": "intersection", "sens": 0}}, {"type": "Feature", "geometry": {"type": "Point", "coordinates": [-92.379816, 34.721443]}, "properties": {"t": "Assist Medical", "c": "welfare", "ts": "2026-10-04T15:51:22Z", "loc": "9600 W 36Th St", "gq": "exact_address", "sens": 1}}, {"type": "Feature", "geometry": {"type": "Point", "coordinates": [-92.365938, 34.707924500000004]}, "properties": {"t": "Criminal Mischief Just Occurred", "c": "vandalism", "ts": "2026-10-04T15:49:30Z", "loc": "E Mellwood Rd / Ascension Rd", "gq": "intersection", "sens": 0}}, {"type": "Feature", "geometry": {"type": "Point", "coordinates": [-92.379714, 34.744827]}, "properties": {"t": "Unknown", "c": "suspicious", "ts": "2026-10-04T15:47:03Z", "loc": "9501 Baptist Health Dr", "gq": "exact_address", "sens": 0}}, {"type": "Feature", "geometry": {"type": "Point", "coordinates": [-92.3302465, 34.7682995]}, "properties": {"t": "Accident", "c": "traffic", "ts": "2026-10-04T15:29:30Z", "loc": "Kavanaugh Blvd / Cantrell Rd", "gq": "intersection", "sens": 0}}, {"type": "Feature", "geometry": {"type": "Point", "coordinates": [-92.357858, 34.747252]}, "properties": {"t": "Kidnapping", "c": "other", "ts": "2026-10-04T15:23:47Z", "loc": "812 Ouachita Cir", "gq": "exact_address", "sens": 0}}, {"type": "Feature", "geometry": {"type": "Point", "coordinates": [-92.390401, 34.75515]}, "properties": {"t": "Disturbance In Progress", "c": "disturbance", "ts": "2026-10-04T15:16:56Z", "loc": "10524 W Markham St", "gq": "exact_address", "sens": 0}}, {"type": "Feature", "geometry": {"type": "Point", "coordinates": [-92.277329, 34.721237]}, "properties": {"t": "Criminal Mischief", "c": "vandalism", "ts": "2026-10-04T15:10:07Z", "loc": "2811 S Spring St", "gq": "exact_address", "sens": 0}}, {"type": "Feature", "geometry": {"type": "Point", "coordinates": [-92.388851, 34.77094]}, "properties": {"t": "Criminal Mischief", "c": "vandalism", "ts": "2026-10-04T15:08:08Z", "loc": "1420 Breckenridge Dr", "gq": "exact_address", "sens": 0}}, {"type": "Feature", "geometry": {"type": "Point", "coordinates": [-92.353159, 34.76914]}, "properties": {"t": "Burglar Alarm", "c": "alarm", "ts": "2026-10-04T15:02:35Z", "loc": "7001 Cantrell Rd", "gq": "exact_address", "sens": 0}}, {"type": "Feature", "geometry": {"type": "Point", "coordinates": [-92.319322, 34.747341500000005]}, "properties": {"t": "Police - Suicide", "c": "welfare", "ts": "2026-10-04T15:00:31Z", "loc": "W 7Th St / S Cedar St", "gq": "intersection", "sens": 1}}, {"type": "Feature", "geometry": {"type": "Point", "coordinates": [-92.29005, 34.724562]}, "properties": {"t": "Police - Subject Down", "c": "welfare", "ts": "2026-10-04T14:58:19Z", "loc": "1501 W Roosevelt Rd", "gq": "exact_address", "sens": 1}}, {"type": "Feature", "geometry": {"type": "Point", "coordinates": [-92.409236, 34.761951]}, "properties": {"t": "Burglar Alarm", "c": "alarm", "ts": "2026-10-04T14:53:10Z", "loc": "701 Napa Valley Dr", "gq": "exact_address", "sens": 0}}, {"type": "Feature", "geometry": {"type": "Point", "coordinates": [-92.359837, 34.654784]}, "properties": {"t": "Found Property", "c": "other", "ts": "2026-10-04T14:32:29Z", "loc": "7217 Mabelvale Ctf", "gq": "exact_address", "sens": 0}}, {"type": "Feature", "geometry": {"type": "Point", "coordinates": [-92.256425, 34.738992]}, "properties": {"t": "Citizen Contact", "c": "other", "ts": "2026-10-04T14:09:38Z", "loc": "1401 E 9Th St", "gq": "exact_address", "sens": 0}}, {"type": "Feature", "geometry": {"type": "Point", "coordinates": [-92.297296, 34.749627]}, "properties": {"t": "Battery In Progress", "c": "assault", "ts": "2026-10-04T13:46:48Z", "loc": "111 Barton St", "gq": "exact_address", "sens": 0}}, {"type": "Feature", "geometry": {"type": "Point", "coordinates": [-92.270779, 34.740794]}, "properties": {"t": "Disturbance In Progress", "c": "disturbance", "ts": "2026-10-04T13:45:09Z", "loc": "800 S Scott St", "gq": "exact_address", "sens": 0}}, {"type": "Feature", "geometry": {"type": "Point", "coordinates": [-92.443141, 34.642138]}, "properties": {"t": "Prisoner Transport", "c": "assist", "ts": "2026-10-04T13:42:36Z", "loc": "13400 Interstate 30", "gq": "exact_address", "sens": 0}}, {"type": "Feature", "geometry": {"type": "Point", "coordinates": [-92.407107, 34.724197]}, "properties": {"t": "Burglar Alarm", "c": "alarm", "ts": "2026-10-04T13:41:03Z", "loc": "3321 S Bowman Rd", "gq": "exact_address", "sens": 0}}, {"type": "Feature", "geometry": {"type": "Point", "coordinates": [-92.18526, 34.722241]}, "properties": {"t": "Disturbance In Progress", "c": "disturbance", "ts": "2026-10-04T13:25:23Z", "loc": "38 Plantation Dr", "gq": "exact_address", "sens": 0}}, {"type": "Feature", "geometry": {"type": "Point", "coordinates": [-92.323102, 34.740428]}, "properties": {"t": "Disturbance In Progress", "c": "disturbance", "ts": "2026-10-04T13:17:23Z", "loc": "4401 W 12Th St", "gq": "exact_address", "sens": 0}}, {"type": "Feature", "geometry": {"type": "Point", "coordinates": [-92.366456, 34.71439]}, "properties": {"t": "Assist Medical", "c": "welfare", "ts": "2026-10-04T13:15:56Z", "loc": "8124 W 43Rd St", "gq": "exact_address", "sens": 1}}, {"type": "Feature", "geometry": {"type": "Point", "coordinates": [-92.378368, 34.759032]}, "properties": {"t": "Suspicious Person Just Occurred", "c": "suspicious", "ts": "2026-10-04T13:13:39Z", "loc": "9222 N Rodney Parham Rd", "gq": "exact_address", "sens": 0}}, {"type": "Feature", "geometry": {"type": "Point", "coordinates": [-92.381657, 34.780395]}, "properties": {"t": "Suspicious Person", "c": "suspicious", "ts": "2026-10-04T13:09:43Z", "loc": "3011 Charter Oak Dr", "gq": "exact_address", "sens": 0}}, {"type": "Feature", "geometry": {"type": "Point", "coordinates": [-92.354016, 34.683775]}, "properties": {"t": "Vehicle Stolen Vehicle", "c": "theft", "ts": "2026-10-04T13:07:44Z", "loc": "6815 Forbing Rd", "gq": "exact_address", "sens": 0}}, {"type": "Feature", "geometry": {"type": "Point", "coordinates": [-92.338236, 34.749563]}, "properties": {"t": "Theft Just Occurred", "c": "theft", "ts": "2026-10-04T13:02:11Z", "loc": "1 Saint Vincent Cir", "gq": "exact_address", "sens": 0}}, {"type": "Feature", "geometry": {"type": "Point", "coordinates": [-92.31606, 34.751193]}, "properties": {"t": "Assist Medical", "c": "welfare", "ts": "2026-10-04T13:01:04Z", "loc": "3825 W Markham St", "gq": "exact_address", "sens": 1}}, {"type": "Feature", "geometry": {"type": "Point", "coordinates": [-92.26674, 34.744438]}, "properties": {"t": "Loitering", "c": "trespass", "ts": "2026-10-04T12:59:45Z", "loc": "400 River Market Ave", "gq": "exact_address", "sens": 0}}, {"type": "Feature", "geometry": {"type": "Point", "coordinates": [-92.465463, 34.793609]}, "properties": {"t": "Theft In Progress", "c": "theft", "ts": "2026-10-04T12:42:05Z", "loc": "72 Marcella Dr", "gq": "exact_address", "sens": 0}}, {"type": "Feature", "geometry": {"type": "Point", "coordinates": [-92.394629, 34.752605]}, "properties": {"t": "Assist Medical", "c": "welfare", "ts": "2026-10-04T20:50:21Z", "loc": "200 S Shackleford Rd", "gq": "exact_address", "sens": 1}}, {"type": "Feature", "geometry": {"type": "Point", "coordinates": [-92.330094, 34.7318725]}, "properties": {"t": "Loud Music", "c": "disturbance", "ts": "2026-10-04T20:46:52Z", "loc": "W 22Nd St / Boulevard Ave", "gq": "intersection", "sens": 0}}, {"type": "Feature", "geometry": {"type": "Point", "coordinates": [-92.329233, 34.773536]}, "properties": {"t": "Residential Alarm", "c": "alarm", "ts": "2026-10-04T20:45:43Z", "loc": "6 Beverly Pl", "gq": "exact_address", "sens": 0}}, {"type": "Feature", "geometry": {"type": "Point", "coordinates": [-92.389558, 34.665693]}, "properties": {"t": "Burglar Alarm", "c": "alarm", "ts": "2026-10-04T20:40:44Z", "loc": "10701 Interstate 30", "gq": "exact_address", "sens": 0}}, {"type": "Feature", "geometry": {"type": "Point", "coordinates": [-92.359722, 34.686172]}, "properties": {"t": "Assist Medical", "c": "welfare", "ts": "2026-10-04T20:37:33Z", "loc": "11 Bay Meadow Ct", "gq": "exact_address", "sens": 1}}, {"type": "Feature", "geometry": {"type": "Point", "coordinates": [-92.403417, 34.717028]}, "properties": {"t": "Information Report", "c": "assist", "ts": "2026-10-04T20:36:47Z", "loc": "5 Topgolf Way", "gq": "exact_address", "sens": 0}}, {"type": "Feature", "geometry": {"type": "Point", "coordinates": [-92.343101, 34.753551]}, "properties": {"t": "Vehicle Stalled Vehicle", "c": "traffic", "ts": "2026-10-04T20:33:09Z", "loc": "6000 W Markham St", "gq": "exact_address", "sens": 0}}, {"type": "Feature", "geometry": {"type": "Point", "coordinates": [-92.293397, 34.741007]}, "properties": {"t": "Check Condition Of Subject", "c": "welfare", "ts": "2026-10-04T20:31:16Z", "loc": "1010 Wolfe St", "gq": "exact_address", "sens": 1}}, {"type": "Feature", "geometry": {"type": "Point", "coordinates": [-92.344276, 34.666987]}, "properties": {"t": "Check Condition Of Subject", "c": "welfare", "ts": "2026-10-04T20:28:44Z", "loc": "11 Cindy Ln", "gq": "exact_address", "sens": 1}}, {"type": "Feature", "geometry": {"type": "Point", "coordinates": [-92.357006, 34.650197]}, "properties": {"t": "Residential Alarm", "c": "alarm", "ts": "2026-10-04T20:25:43Z", "loc": "7008 Guinevere Dr", "gq": "exact_address", "sens": 0}}, {"type": "Feature", "geometry": {"type": "Point", "coordinates": [-92.332865, 34.732237]}, "properties": {"t": "Criminal Mischief", "c": "vandalism", "ts": "2026-10-04T20:21:55Z", "loc": "2106 S Harrison St", "gq": "exact_address", "sens": 0}}, {"type": "Feature", "geometry": {"type": "Point", "coordinates": [-92.414494, 34.802752]}, "properties": {"t": "Residential Alarm", "c": "alarm", "ts": "2026-10-04T20:19:23Z", "loc": "12800 Southridge Dr", "gq": "exact_address", "sens": 0}}, {"type": "Feature", "geometry": {"type": "Point", "coordinates": [-92.32954, 34.732558]}, "properties": {"t": "Unknown", "c": "suspicious", "ts": "2026-10-04T20:12:31Z", "loc": "2108 Boulevard Ave", "gq": "exact_address", "sens": 0}}, {"type": "Feature", "geometry": {"type": "Point", "coordinates": [-92.35028, 34.754997]}, "properties": {"t": "Disturbance", "c": "disturbance", "ts": "2026-10-04T20:11:29Z", "loc": "323 Auburn Dr", "gq": "exact_address", "sens": 0}}, {"type": "Feature", "geometry": {"type": "Point", "coordinates": [-92.36088, 34.744548]}, "properties": {"t": "Parking Violation", "c": "traffic", "ts": "2026-10-04T20:04:27Z", "loc": "820 S Rodney Parham Rd", "gq": "exact_address", "sens": 0}}, {"type": "Feature", "geometry": {"type": "Point", "coordinates": [-92.44065, 34.774408]}, "properties": {"t": "Residential Alarm", "c": "alarm", "ts": "2026-10-04T20:02:22Z", "loc": "2101 Rahling Rd", "gq": "exact_address", "sens": 0}}, {"type": "Feature", "geometry": {"type": "Point", "coordinates": [-92.398683, 34.757936]}, "properties": {"t": "Suspicious Person", "c": "suspicious", "ts": "2026-10-04T19:59:43Z", "loc": "501 Nan Cir", "gq": "exact_address", "sens": 0}}, {"type": "Feature", "geometry": {"type": "Point", "coordinates": [-92.266993, 34.747427]}, "properties": {"t": "Assist Party", "c": "disturbance", "ts": "2026-10-04T19:59:18Z", "loc": "333 President Clinton Ave", "gq": "exact_address", "sens": 0}}, {"type": "Feature", "geometry": {"type": "Point", "coordinates": [-92.333292, 34.68262]}, "properties": {"t": "Standby To Prevent Disturbance", "c": "disturbance", "ts": "2026-10-04T19:58:35Z", "loc": "12 York Dr", "gq": "exact_address", "sens": 0}}, {"type": "Feature", "geometry": {"type": "Point", "coordinates": [-92.34026850000001, 34.734167]}, "properties": {"t": "Accident", "c": "traffic", "ts": "2026-10-04T19:57:00Z", "loc": "W 19Th St / S Fillmore St", "gq": "intersection", "sens": 0}}, {"type": "Feature", "geometry": {"type": "Point", "coordinates": [-92.3056425, 34.7382745]}, "properties": {"t": "Wanted Person", "c": "other", "ts": "2026-10-04T19:55:38Z", "loc": "S Woodrow St / W Daisy L Gatson Bates Dr", "gq": "intersection", "sens": 0}}, {"type": "Feature", "geometry": {"type": "Point", "coordinates": [-92.349169, 34.678169]}, "properties": {"t": "Criminal Mischief", "c": "vandalism", "ts": "2026-10-04T19:51:31Z", "loc": "8701 Interstate 30", "gq": "exact_address", "sens": 0}}, {"type": "Feature", "geometry": {"type": "Point", "coordinates": [-92.437549, 34.763072]}, "properties": {"t": "Disturbance In Progress", "c": "disturbance", "ts": "2026-10-04T19:23:56Z", "loc": "14807 Chambery Dr", "gq": "exact_address", "sens": 0}}, {"type": "Feature", "geometry": {"type": "Point", "coordinates": [-92.362798, 34.680382]}, "properties": {"t": "Standby To Prevent Disturbance", "c": "disturbance", "ts": "2026-10-04T19:17:13Z", "loc": "7700 N Chicot Rd", "gq": "exact_address", "sens": 0}}, {"type": "Feature", "geometry": {"type": "Point", "coordinates": [-92.367833, 34.652402]}, "properties": {"t": "Disturbance Just Occurred", "c": "disturbance", "ts": "2026-10-04T19:15:33Z", "loc": "8000 E Legion Rd", "gq": "exact_address", "sens": 0}}, {"type": "Feature", "geometry": {"type": "Point", "coordinates": [-92.445622, 34.739684]}, "properties": {"t": "Missing Person In Progress", "c": "welfare", "ts": "2026-10-04T19:12:11Z", "loc": "15507 Capitol Hill Blvd", "gq": "exact_address", "sens": 0}}, {"type": "Feature", "geometry": {"type": "Point", "coordinates": [-92.353108, 34.647211]}, "properties": {"t": "Shots Fired", "c": "shots", "ts": "2026-10-04T19:10:14Z", "loc": "11300 Kerry Dr", "gq": "exact_address", "sens": 0}}, {"type": "Feature", "geometry": {"type": "Point", "coordinates": [-92.18872729, 34.7181164]}, "properties": {"t": "Accident Injuries", "c": "traffic", "ts": "2026-10-04T18:46:38Z", "loc": "8700 Fourche Dam Pike", "gq": "interpolated", "sens": 0}}, {"type": "Feature", "geometry": {"type": "Point", "coordinates": [-92.263548, 34.727542]}, "properties": {"t": "Suspicious Person", "c": "suspicious", "ts": "2026-10-04T18:45:43Z", "loc": "2121 Mcalmont St", "gq": "exact_address", "sens": 0}}, {"type": "Feature", "geometry": {"type": "Point", "coordinates": [-92.498087, 34.809405]}, "properties": {"t": "Standby To Prevent Disturbance", "c": "disturbance", "ts": "2026-10-04T18:28:56Z", "loc": "160 Caurel Cir", "gq": "exact_address", "sens": 0}}, {"type": "Feature", "geometry": {"type": "Point", "coordinates": [-92.345036, 34.698648]}, "properties": {"t": "Burglar Alarm", "c": "alarm", "ts": "2026-10-04T18:27:30Z", "loc": "5601 S University Ave", "gq": "exact_address", "sens": 0}}, {"type": "Feature", "geometry": {"type": "Point", "coordinates": [-92.373484, 34.705114]}, "properties": {"t": "Unknown", "c": "suspicious", "ts": "2026-10-04T18:23:05Z", "loc": "8711 Westwood Ave", "gq": "exact_address", "sens": 0}}, {"type": "Feature", "geometry": {"type": "Point", "coordinates": [-92.378237, 34.737117]}, "properties": {"t": "Vehicle Stolen Vehicle", "c": "theft", "ts": "2026-10-04T18:11:15Z", "loc": "9 Karon Ct", "gq": "exact_address", "sens": 0}}, {"type": "Feature", "geometry": {"type": "Point", "coordinates": [-92.36861, 34.716238]}, "properties": {"t": "Accident Hit & Run", "c": "traffic", "ts": "2026-10-04T17:54:29Z", "loc": "4023 Cobb St", "gq": "exact_address", "sens": 0}}, {"type": "Feature", "geometry": {"type": "Point", "coordinates": [-92.323589, 34.740109]}, "properties": {"t": "Theft", "c": "theft", "ts": "2026-10-04T17:51:28Z", "loc": "1215 Washington St", "gq": "exact_address", "sens": 0}}, {"type": "Feature", "geometry": {"type": "Point", "coordinates": [-92.356775, 34.767883]}, "properties": {"t": "Burglar Alarm", "c": "alarm", "ts": "2026-10-04T17:46:40Z", "loc": "7415 Indiana Ave", "gq": "exact_address", "sens": 0}}, {"type": "Feature", "geometry": {"type": "Point", "coordinates": [-92.367574, 34.647719]}, "properties": {"t": "Unknown", "c": "suspicious", "ts": "2026-10-05T00:17:44Z", "loc": "11500 Chicot Rd", "gq": "exact_address", "sens": 0}}, {"type": "Feature", "geometry": {"type": "Point", "coordinates": [-92.318295, 34.751986]}, "properties": {"t": "Disturbance Just Occurred", "c": "disturbance", "ts": "2026-10-05T00:12:19Z", "loc": "111 N Elm St", "gq": "exact_address", "sens": 0}}, {"type": "Feature", "geometry": {"type": "Point", "coordinates": [-92.343511, 34.659036]}, "properties": {"t": "Disturbance In Progress", "c": "disturbance", "ts": "2026-10-05T00:10:12Z", "loc": "5823 Liberty Cv", "gq": "exact_address", "sens": 0}}, {"type": "Feature", "geometry": {"type": "Point", "coordinates": [-92.277129, 34.74877]}, "properties": {"t": "Information Report", "c": "assist", "ts": "2026-10-05T00:07:58Z", "loc": "615 W Markham St", "gq": "exact_address", "sens": 0}}, {"type": "Feature", "geometry": {"type": "Point", "coordinates": [-92.355167, 34.742472]}, "properties": {"t": "Disturbance In Progress", "c": "disturbance", "ts": "2026-10-05T00:05:53Z", "loc": "7200 W 12Th St", "gq": "exact_address", "sens": 0}}, {"type": "Feature", "geometry": {"type": "Point", "coordinates": [-92.447747, 34.7563]}, "properties": {"t": "Disturbance In Progress", "c": "disturbance", "ts": "2026-10-04T23:55:28Z", "loc": "16105 Chenal Pky", "gq": "exact_address", "sens": 0}}, {"type": "Feature", "geometry": {"type": "Point", "coordinates": [-92.258172, 34.737316]}, "properties": {"t": "Residential Alarm", "c": "alarm", "ts": "2026-10-04T23:54:20Z", "loc": "1101 College St", "gq": "exact_address", "sens": 0}}, {"type": "Feature", "geometry": {"type": "Point", "coordinates": [-92.347741, 34.654409]}, "properties": {"t": "Check Condition Of Subject", "c": "welfare", "ts": "2026-10-04T23:53:26Z", "loc": "6201 Mabelvale Ctf", "gq": "exact_address", "sens": 1}}, {"type": "Feature", "geometry": {"type": "Point", "coordinates": [-92.375634, 34.764214]}, "properties": {"t": "Battery With Weapon", "c": "shots", "ts": "2026-10-04T23:49:34Z", "loc": "1221 Reservoir Rd", "gq": "exact_address", "sens": 0}}, {"type": "Feature", "geometry": {"type": "Point", "coordinates": [-92.377034, 34.723016]}, "properties": {"t": "Animal Vicious Animal", "c": "animal", "ts": "2026-10-04T23:45:09Z", "loc": "3311 Holt St", "gq": "exact_address", "sens": 0}}, {"type": "Feature", "geometry": {"type": "Point", "coordinates": [-92.343965, 34.669466]}, "properties": {"t": "Accident Hit & Run", "c": "traffic", "ts": "2026-10-04T23:43:57Z", "loc": "5924 Baseline Rd", "gq": "exact_address", "sens": 0}}, {"type": "Feature", "geometry": {"type": "Point", "coordinates": [-92.345036, 34.698648]}, "properties": {"t": "Burglar Alarm", "c": "alarm", "ts": "2026-10-04T23:42:17Z", "loc": "5601 S University Ave", "gq": "exact_address", "sens": 0}}, {"type": "Feature", "geometry": {"type": "Point", "coordinates": [-92.256425, 34.738992]}, "properties": {"t": "Accident Injuries", "c": "traffic", "ts": "2026-10-04T23:38:01Z", "loc": "1401 E 9Th St", "gq": "exact_address", "sens": 0}}, {"type": "Feature", "geometry": {"type": "Point", "coordinates": [-92.29737850000001, 34.741054000000005]}, "properties": {"t": "Suspicious Person", "c": "suspicious", "ts": "2026-10-04T23:37:09Z", "loc": "S Park St / W 11Th St", "gq": "intersection", "sens": 0}}, {"type": "Feature", "geometry": {"type": "Point", "coordinates": [-92.34636850000001, 34.6984815]}, "properties": {"t": "Accident Injuries", "c": "traffic", "ts": "2026-10-04T23:31:25Z", "loc": "S University Ave / Mabelvale Pike", "gq": "intersection", "sens": 0}}, {"type": "Feature", "geometry": {"type": "Point", "coordinates": [-92.325431, 34.733332]}, "properties": {"t": "Kidnapping", "c": "other", "ts": "2026-10-04T23:18:47Z", "loc": "4609 W Charles Bussey Ave", "gq": "exact_address", "sens": 0}}, {"type": "Feature", "geometry": {"type": "Point", "coordinates": [-92.390715, 34.66789]}, "properties": {"t": "Burglar Alarm", "c": "alarm", "ts": "2026-10-04T23:15:16Z", "loc": "10710 Interstate 30", "gq": "exact_address", "sens": 0}}, {"type": "Feature", "geometry": {"type": "Point", "coordinates": [-92.275713, 34.749117]}, "properties": {"t": "Robbery Alarm", "c": "alarm", "ts": "2026-10-04T23:12:29Z", "loc": "500 W Markham St", "gq": "exact_address", "sens": 0}}, {"type": "Feature", "geometry": {"type": "Point", "coordinates": [-92.366714, 34.71944]}, "properties": {"t": "Residential Alarm", "c": "alarm", "ts": "2026-10-04T23:10:09Z", "loc": "3700 Walker St", "gq": "exact_address", "sens": 0}}, {"type": "Feature", "geometry": {"type": "Point", "coordinates": [-92.42596930275229, 34.65842056880734]}, "properties": {"t": "Vehicle Attempt To Locate Stolen Vehicle", "c": "theft", "ts": "2026-10-04T23:06:03Z", "loc": "10200 Stagecoach Rd", "gq": "interpolated", "sens": 0}}, {"type": "Feature", "geometry": {"type": "Point", "coordinates": [-92.437424, 34.665568]}, "properties": {"t": "Criminal Mischief", "c": "vandalism", "ts": "2026-10-04T23:03:11Z", "loc": "14318 Wimbledon Loop", "gq": "exact_address", "sens": 0}}, {"type": "Feature", "geometry": {"type": "Point", "coordinates": [-92.3088, 34.76708]}, "properties": {"t": "Burglar Alarm", "c": "alarm", "ts": "2026-10-04T23:00:09Z", "loc": "1700 Brookwood Dr", "gq": "exact_address", "sens": 0}}, {"type": "Feature", "geometry": {"type": "Point", "coordinates": [-92.347746, 34.691663]}, "properties": {"t": "Police - Subject Down", "c": "welfare", "ts": "2026-10-04T22:57:43Z", "loc": "6420 S University Ave", "gq": "exact_address", "sens": 1}}, {"type": "Feature", "geometry": {"type": "Point", "coordinates": [-92.341351, 34.760035]}, "properties": {"t": "Unknown", "c": "suspicious", "ts": "2026-10-04T22:55:32Z", "loc": "900 N University Ave", "gq": "exact_address", "sens": 0}}, {"type": "Feature", "geometry": {"type": "Point", "coordinates": [-92.348282, 34.692086]}, "properties": {"t": "Assist Medical", "c": "welfare", "ts": "2026-10-04T22:51:35Z", "loc": "6310 Mabelvale Pike", "gq": "exact_address", "sens": 1}}, {"type": "Feature", "geometry": {"type": "Point", "coordinates": [-92.324606, 34.734185]}, "properties": {"t": "Unknown", "c": "suspicious", "ts": "2026-10-04T22:47:36Z", "loc": "4504 Grand Ave", "gq": "exact_address", "sens": 0}}, {"type": "Feature", "geometry": {"type": "Point", "coordinates": [-92.31017, 34.723478]}, "properties": {"t": "Administrative", "c": "assist", "ts": "2026-10-04T22:39:31Z", "loc": "3201 W Roosevelt Rd", "gq": "exact_address", "sens": 0}}, {"type": "Feature", "geometry": {"type": "Point", "coordinates": [-92.397723, 34.728334]}, "properties": {"t": "Suspicious Person", "c": "suspicious", "ts": "2026-10-04T22:28:22Z", "loc": "2700 S Shackleford Rd", "gq": "exact_address", "sens": 0}}, {"type": "Feature", "geometry": {"type": "Point", "coordinates": [-92.285282, 34.735612]}, "properties": {"t": "Animal Vicious Animal", "c": "animal", "ts": "2026-10-04T22:22:29Z", "loc": "1510 S Ringo St", "gq": "exact_address", "sens": 0}}, {"type": "Feature", "geometry": {"type": "Point", "coordinates": [-92.337304, 34.66929]}, "properties": {"t": "Unknown", "c": "suspicious", "ts": "2026-10-04T22:20:26Z", "loc": "5310 Baseline Rd", "gq": "exact_address", "sens": 0}}, {"type": "Feature", "geometry": {"type": "Point", "coordinates": [-92.259421, 34.719583]}, "properties": {"t": "Disturbance In Progress", "c": "disturbance", "ts": "2026-10-04T22:15:46Z", "loc": "3000 Springer Blvd", "gq": "exact_address", "sens": 0}}, {"type": "Feature", "geometry": {"type": "Point", "coordinates": [-92.360074, 34.727996]}, "properties": {"t": "Traffic Stop", "c": "traffic", "ts": "2026-10-04T22:14:32Z", "loc": "W 28Th St / Dorchester Dr", "gq": "intersection", "sens": 0}}, {"type": "Feature", "geometry": {"type": "Point", "coordinates": [-92.376986, 34.667168]}, "properties": {"t": "Information Report", "c": "assist", "ts": "2026-10-04T22:06:21Z", "loc": "8801 Baseline Rd", "gq": "exact_address", "sens": 0}}, {"type": "Feature", "geometry": {"type": "Point", "coordinates": [-92.337918, 34.756718]}, "properties": {"t": "Information Report", "c": "assist", "ts": "2026-10-04T21:52:05Z", "loc": "5722 Woodlawn Dr", "gq": "exact_address", "sens": 0}}, {"type": "Feature", "geometry": {"type": "Point", "coordinates": [-92.333913, 34.734521]}, "properties": {"t": "Information Report", "c": "assist", "ts": "2026-10-04T21:38:00Z", "loc": "1900 S Tyler St", "gq": "exact_address", "sens": 0}}, {"type": "Feature", "geometry": {"type": "Point", "coordinates": [-92.35464, 34.684862]}, "properties": {"t": "Loud Music", "c": "disturbance", "ts": "2026-10-04T21:33:25Z", "loc": "7208 Mabelvale Pike", "gq": "exact_address", "sens": 0}}, {"type": "Feature", "geometry": {"type": "Point", "coordinates": [-92.308736, 34.761958]}, "properties": {"t": "Burglar Alarm", "c": "alarm", "ts": "2026-10-04T21:15:45Z", "loc": "3000 Cantrell Rd", "gq": "exact_address", "sens": 0}}, {"type": "Feature", "geometry": {"type": "Point", "coordinates": [-92.306149, 34.750714]}, "properties": {"t": "Assist Medical", "c": "welfare", "ts": "2026-10-04T21:07:29Z", "loc": "2919 W Markham St", "gq": "exact_address", "sens": 1}}, {"type": "Feature", "geometry": {"type": "Point", "coordinates": [-92.321353, 34.725599]}, "properties": {"t": "Traffic Stop", "c": "traffic", "ts": "2026-10-04T21:06:35Z", "loc": "Lewis St / W 29Th St", "gq": "intersection", "sens": 0}}, {"type": "Feature", "geometry": {"type": "Point", "coordinates": [-92.439601, 34.669998]}, "properties": {"t": "Vehicle Stolen Vehicle", "c": "theft", "ts": "2026-10-04T21:03:57Z", "loc": "75 Legends Dr", "gq": "exact_address", "sens": 0}}, {"type": "Feature", "geometry": {"type": "Point", "coordinates": [-92.285078, 34.726649]}, "properties": {"t": "Disturbance In Progress", "c": "disturbance", "ts": "2026-10-04T21:01:08Z", "loc": "2304 S Chester St", "gq": "exact_address", "sens": 0}}, {"type": "Feature", "geometry": {"type": "Point", "coordinates": [-92.402839, 34.792765]}, "properties": {"t": "Burglar Alarm", "c": "alarm", "ts": "2026-10-04T20:59:16Z", "loc": "11525 Cantrell Rd", "gq": "exact_address", "sens": 0}}, {"type": "Feature", "geometry": {"type": "Point", "coordinates": [-92.397352, 34.714303]}, "properties": {"t": "Theft Just Occurred", "c": "theft", "ts": "2026-10-04T20:57:14Z", "loc": "10800 Colonel Glenn Rd", "gq": "exact_address", "sens": 0}}, {"type": "Feature", "geometry": {"type": "Point", "coordinates": [-92.351057, 34.740158]}, "properties": {"t": "Vehicle Abandoned Vehicle", "c": "traffic", "ts": "2026-10-04T20:53:25Z", "loc": "6705 W 12Th St", "gq": "exact_address", "sens": 0}}]}